{
    "links": {
        "self": "http://www.neowsapp.com/rest/v1/neo/3791336?api_key=iIulBulltgU6a56xZRHN4H3l9WmuAYTsLGpBGhQ2"
    },
    "id": "3791336",
    "neo_reference_id": "3791336",
    "name": "(2017 XJ60)",
    "designation": "2017 XJ60",
    "nasa_jpl_url": "http://ssd.jpl.nasa.gov/sbdb.cgi?sstr=3791336",
    "absolute_magnitude_h": 23.1,
    "estimated_diameter": {
        "kilometers": {
            "estimated_diameter_min": 0.063760979,
            "estimated_diameter_max": 0.1425738833
        },
        "meters": {
            "estimated_diameter_min": 63.7609789875,
            "estimated_diameter_max": 142.5738833281
        },
        "miles": {
            "estimated_diameter_min": 0.0396192233,
            "estimated_diameter_max": 0.0885912765
        },
        "feet": {
            "estimated_diameter_min": 209.1895703015,
            "estimated_diameter_max": 467.7620993781
        }
    },
    "is_potentially_hazardous_asteroid": false,
    "close_approach_data": [
        {
            "close_approach_date": "2017-12-27",
            "close_approach_date_full": "2017-Dec-27 02:23",
            "epoch_date_close_approach": 1514341380000,
            "relative_velocity": {
                "kilometers_per_second": "18.4262388525",
                "kilometers_per_hour": "66334.4598690774",
                "miles_per_hour": "41217.6536892053"
            },
            "miss_distance": {
                "astronomical": "0.1230047295",
                "lunar": "47.8488397755",
                "kilometers": "18401245.533126165",
                "miles": "11434003.772484477"
            },
            "orbiting_body": "Earth"
        }
    ],
    "orbital_data": {
        "orbit_id": "2",
        "orbit_determination_date": "2017-12-22 06:29:40",
        "first_observation_date": "2017-12-11",
        "last_observation_date": "2017-12-20",
        "data_arc_in_days": 9,
        "observations_used": 15,
        "orbit_uncertainty": "9",
        "minimum_orbit_intersection": ".122991",
        "jupiter_tisserand_invariant": "3.363",
        "epoch_osculation": "2458099.5",
        "eccentricity": ".6739036664237348",
        "semi_major_axis": "2.139365207837137",
        "inclination": "10.80943489421738",
        "ascending_node_longitude": "134.9548968514993",
        "orbital_period": "1142.946283705954",
        "perihelion_distance": ".6976391504563152",
        "perihelion_argument": "29.347515924327",
        "aphelion_distance": "3.58109126521796",
        "perihelion_time": "2458153.922028421570",
        "mean_anomaly": "342.8583980620339",
        "mean_motion": ".3149754324697706",
        "equinox": "J2000",
        "orbit_class": {
            "orbit_class_type": "APO",
            "orbit_class_description": "Near-Earth asteroid orbits which cross the Earth’s orbit similar to that of 1862 Apollo",
            "orbit_class_range": "a (semi-major axis) > 1.0 AU; q (perihelion) < 1.017 AU"
        }
    },
    "is_sentry_object": false
}